[{"OBJECT_NAME":"STARLINK-30754","OBJECT_ID":"2023-162G","EPOCH":"2026-03-09T22:00:01.999584","MEAN_MOTION":15.26812901,"ECCENTRICITY":5.595e-5,"INCLINATION":43.0004,"RA_OF_ASC_NODE":131.105,"ARG_OF_PERICENTER":279.3105,"MEAN_ANOMALY":52.1875,"EPHEMERIS_TYPE":0,"CLASSIFICATION_TYPE":"U","NORAD_CAT_ID":58124,"ELEMENT_SET_NO":999,"REV_AT_EPOCH":572,"BSTAR":0.001102871,"MEAN_MOTION_DOT":0.00029507,"MEAN_MOTION_DDOT":0},{"OBJECT_NAME":"CZ-4C R\/B","OBJECT_ID":"2010-009D","EPOCH":"2026-03-09T22:19:23.688192","MEAN_MOTION":13.72984009,"ECCENTRICITY":0.06900973,"INCLINATION":63.3888,"RA_OF_ASC_NODE":313.7289,"ARG_OF_PERICENTER":2.6464,"MEAN_ANOMALY":357.7935,"EPHEMERIS_TYPE":0,"CLASSIFICATION_TYPE":"U","NORAD_CAT_ID":36416,"ELEMENT_SET_NO":999,"REV_AT_EPOCH":80095,"BSTAR":0.00032412476,"MEAN_MOTION_DOT":1.649e-5,"MEAN_MOTION_DDOT":0}]
